[{"OBJECT_NAME":"STARLINK-2739","OBJECT_ID":"2021-044B","EPOCH":"2026-03-09T22:56:13.511616","MEAN_MOTION":15.30168673,"ECCENTRICITY":0.00015344,"INCLINATION":53.1576,"RA_OF_ASC_NODE":112.6145,"ARG_OF_PERICENTER":86.6202,"MEAN_ANOMALY":273.4974,"EPHEMERIS_TYPE":0,"CLASSIFICATION_TYPE":"U","NORAD_CAT_ID":48639,"ELEMENT_SET_NO":999,"REV_AT_EPOCH":26386,"BSTAR":-0.00065056068,"MEAN_MOTION_DOT":-0.00019558,"MEAN_MOTION_DDOT":0},{"OBJECT_NAME":"OBJECT BD","OBJECT_ID":"2025-313BD","EPOCH":"2026-03-09T15:06:44.992224","MEAN_MOTION":15.3000236,"ECCENTRICITY":0.00072867,"INCLINATION":97.397,"RA_OF_ASC_NODE":145.285,"ARG_OF_PERICENTER":333.4514,"MEAN_ANOMALY":26.6352,"EPHEMERIS_TYPE":0,"CLASSIFICATION_TYPE":"U","NORAD_CAT_ID":67299,"ELEMENT_SET_NO":999,"REV_AT_EPOCH":1083,"BSTAR":0.0027633805,"MEAN_MOTION_DOT":0.0008101,"MEAN_MOTION_DDOT":0}]
